{
  "type": "FeatureCollection",
  "features": [
    {
      "type": "Feature",
      "geometry": {
        "type": "Polygon",
        "coordinates": [
          [
            [
              -73.4419371803529,
              45.4608572042939
            ],
            [
              -73.442068616693,
              45.4607750344063
            ],
            [
              -73.4392227663954,
              45.4588188565978
            ],
            [
              -73.4390697792503,
              45.4589580674633
            ],
            [
              -73.4397726931605,
              45.4594366021921
            ],
            [
              -73.4406423501047,
              45.4600884605085
            ],
            [
              -73.4407253299615,
              45.4600394964253
            ],
            [
              -73.4409090621742,
              45.4601679708765
            ],
            [
              -73.4406026855082,
              45.4603722037985
            ],
            [
              -73.4407881453353,
              45.4605008037597
            ],
            [
              -73.4411150839583,
              45.4602841401925
            ],
            [
              -73.4419371803529,
              45.4608572042939
            ]
          ]
        ]
      },
      "properties": {
        "stroke": "#ff0000",
        "stroke-opacity": 1,
        "fill-opacity": 0,
        "perimetre": "728.877976623985",
        "superficie": "6137.52393300354"
      }
    }
  ],
  "properties": {
    "description": "Created with MapKmlTools.com"
  }
}