{
"type": "FeatureCollection",
"name": "user_datazone_excavation_fondation1790179447860",
"features": [
{ "type": "Feature", "properties": { "perimetre": 36.359754547503897, "superficie": 62.3438148331444 }, "geometry": { "type": "Polygon", "coordinates": [ [ [ -73.4393568, 45.4601432, 0.0 ], [ -73.4393974, 45.4601738, 0.0 ], [ -73.4395238, 45.4600894, 0.0 ], [ -73.4394836, 45.4600603, 0.0 ], [ -73.4393568, 45.4601432, 0.0 ] ] ] } },
{ "type": "Feature", "properties": { "perimetre": 34.146799692014802, "superficie": 58.871690183952801 }, "geometry": { "type": "Polygon", "coordinates": [ [ [ -73.4399024, 45.4607706, 0.0 ], [ -73.4400111, 45.4608509, 0.0 ], [ -73.4400555, 45.4608213, 0.0 ], [ -73.439948, 45.4607417, 0.0 ], [ -73.4399024, 45.4607706, 0.0 ] ] ] } },
{ "type": "Feature", "properties": { "perimetre": 141.98819080969699, "superficie": 453.47513579717901 }, "geometry": { "type": "Polygon", "coordinates": [ [ [ -73.4400394, 45.4608088, 0.0 ], [ -73.4401002, 45.4608538, 0.0 ], [ -73.4406859, 45.4604532, 0.0 ], [ -73.4406206, 45.4604065, 0.0 ], [ -73.4400394, 45.4608088, 0.0 ] ] ] } },
{ "type": "Feature", "properties": { "perimetre": 15.8911192500208, "superficie": 12.5557346549228 }, "geometry": { "type": "Polygon", "coordinates": [ [ [ -73.439882, 45.4604783, 0.0 ], [ -73.4399018, 45.4604921, 0.0 ], [ -73.4399557, 45.4604569, 0.0 ], [ -73.439936, 45.460443, 0.0 ], [ -73.439882, 45.4604783, 0.0 ] ] ] } },
{ "type": "Feature", "properties": { "perimetre": 89.337035770764899, "superficie": 405.885712321553 }, "geometry": { "type": "Polygon", "coordinates": [ [ [ -73.4398854, 45.4603408, 0.0 ], [ -73.4399977, 45.4604226, 0.0 ], [ -73.4402908, 45.4602205, 0.0 ], [ -73.4401749, 45.4601402, 0.0 ], [ -73.4398854, 45.4603408, 0.0 ] ] ] } },
{ "type": "Feature", "properties": { "perimetre": 33.980385010377702, "superficie": 64.142268378026202 }, "geometry": { "type": "Polygon", "coordinates": [ [ [ -73.4398084, 45.4602515, 0.0 ], [ -73.4398583, 45.4602879, 0.0 ], [ -73.439963, 45.4602172, 0.0 ], [ -73.4399118, 45.4601808, 0.0 ], [ -73.4398084, 45.4602515, 0.0 ] ] ] } },
{ "type": "Feature", "properties": { "perimetre": 35.3177965677164, "superficie": 70.777408248944894 }, "geometry": { "type": "Polygon", "coordinates": [ [ [ -73.4399536, 45.4601533, 0.0 ], [ -73.4400084, 45.4601924, 0.0 ], [ -73.4401157, 45.4601212, 0.0 ], [ -73.4400594, 45.4600821, 0.0 ], [ -73.4399536, 45.4601533, 0.0 ] ] ] } },
{ "type": "Feature", "properties": { "perimetre": 10.0540650975734, "superficie": 6.3081649669045703 }, "geometry": { "type": "Polygon", "coordinates": [ [ [ -73.4401262, 45.460056, 0.0 ], [ -73.4401498, 45.4600729, 0.0 ], [ -73.4401719, 45.4600574, 0.0 ], [ -73.4401484, 45.4600412, 0.0 ], [ -73.4401262, 45.460056, 0.0 ] ] ] } },
{ "type": "Feature", "properties": { "perimetre": 72.354470760739602, "superficie": 158.601254117477 }, "geometry": { "type": "Polygon", "coordinates": [ [ [ -73.4396757, 45.4596656, 0.0 ], [ -73.4397226, 45.4596985, 0.0 ], [ -73.4400099, 45.4595059, 0.0 ], [ -73.4399645, 45.459474, 0.0 ], [ -73.4396757, 45.4596656, 0.0 ] ] ] } },
{ "type": "Feature", "properties": { "perimetre": 10.2046812384439, "superficie": 6.4857134966074002 }, "geometry": { "type": "Polygon", "coordinates": [ [ [ -73.4394873, 45.4604877, 0.0 ], [ -73.4395099, 45.4605054, 0.0 ], [ -73.4395337, 45.4604909, 0.0 ], [ -73.4395094, 45.4604733, 0.0 ], [ -73.4394873, 45.4604877, 0.0 ] ] ] } },
{ "type": "Feature", "properties": { "perimetre": 10.1354747941889, "superficie": 6.4183407383314703 }, "geometry": { "type": "Polygon", "coordinates": [ [ [ -73.4389541, 45.4601669, 0.0 ], [ -73.4389765, 45.4601839, 0.0 ], [ -73.4389995, 45.4601686, 0.0 ], [ -73.438978, 45.4601515, 0.0 ], [ -73.4389541, 45.4601669, 0.0 ] ] ] } },
{ "type": "Feature", "properties": { "perimetre": 91.134837038635197, "superficie": 379.31605839721402 }, "geometry": { "type": "Polygon", "coordinates": [ [ [ -73.4389816, 45.4601105, 0.0 ], [ -73.4390565, 45.4601674, 0.0 ], [ -73.4390894, 45.460145, 0.0 ], [ -73.4392463, 45.4602618, 0.0 ], [ -73.4393587, 45.4601871, 0.0 ], [ -73.4392008, 45.4600716, 0.0 ], [ -73.4392333, 45.4600502, 0.0 ], [ -73.4391543, 45.4599935, 0.0 ], [ -73.4389816, 45.4601105, 0.0 ] ] ] } },
{ "type": "Feature", "properties": { "perimetre": 109.751732741455, "superficie": 517.10036349361701 }, "geometry": { "type": "Polygon", "coordinates": [ [ [ -73.4394122, 45.4598166, 0.0 ], [ -73.439492, 45.4598719, 0.0 ], [ -73.4395233, 45.4598516, 0.0 ], [ -73.4397533, 45.4600188, 0.0 ], [ -73.4398758, 45.4599392, 0.0 ], [ -73.4396434, 45.4597716, 0.0 ], [ -73.4396755, 45.4597492, 0.0 ], [ -73.4395932, 45.4596905, 0.0 ], [ -73.4394122, 45.4598166, 0.0 ] ] ] } },
{ "type": "Feature", "properties": { "perimetre": 56.094426668065502, "superficie": 193.93559918686299 }, "geometry": { "type": "Polygon", "coordinates": [ [ [ -73.4394642, 45.4600134, 0.0 ], [ -73.4396029, 45.460114, 0.0 ], [ -73.4397181, 45.4600382, 0.0 ], [ -73.4395787, 45.4599364, 0.0 ], [ -73.4394642, 45.4600134, 0.0 ] ] ] } }
]
}
