{
"type": "FeatureCollection",
"name": "user_datazone_excavation_peu_profonde1790174163961",
"features": [
{ "type": "Feature", "properties": { "perimetre": 684.46345610943399, "superficie": 12241.467628924 }, "geometry": { "type": "Polygon", "coordinates": [ [ [ -73.4409683, 45.4603546, 0.0 ], [ -73.440942, 45.460334, 0.0 ], [ -73.4407035, 45.4604909, 0.0 ], [ -73.4406052, 45.460416, 0.0 ], [ -73.4400337, 45.460809, 0.0 ], [ -73.4397608, 45.46061, 0.0 ], [ -73.4405798, 45.4600591, 0.0 ], [ -73.4404817, 45.45998, 0.0 ], [ -73.4404992, 45.4599714, 0.0 ], [ -73.4403242, 45.4598568, 0.0 ], [ -73.4403423, 45.4598457, 0.0 ], [ -73.4403121, 45.4598252, 0.0 ], [ -73.4402844, 45.4598383, 0.0 ], [ -73.4400984, 45.4597087, 0.0 ], [ -73.4401149, 45.4596965, 0.0 ], [ -73.439915, 45.4595605, 0.0 ], [ -73.4399332, 45.4595428, 0.0 ], [ -73.4397696, 45.4594307, 0.0 ], [ -73.4387433, 45.4601415, 0.0 ], [ -73.4399992, 45.4610243, 0.0 ], [ -73.4409683, 45.4603546, 0.0 ] ] ] } },
{ "type": "Feature", "properties": { "perimetre": 125.819334696575, "superficie": 593.94662194376303 }, "geometry": { "type": "Polygon", "coordinates": [ [ [ -73.4408421, 45.460133, 0.0 ], [ -73.4413019, 45.459802, 0.0 ], [ -73.4411966, 45.4597343, 0.0 ], [ -73.4407324, 45.4600579, 0.0 ], [ -73.4408421, 45.460133, 0.0 ] ] ] } }
]
}
